[{"OBJECT_NAME":"STARLINK-36578","OBJECT_ID":"2026-016L","EPOCH":"2026-03-09T17:14:14.869824","MEAN_MOTION":15.75202345,"ECCENTRICITY":0.00010498,"INCLINATION":97.2845,"RA_OF_ASC_NODE":129.1419,"ARG_OF_PERICENTER":65.2377,"MEAN_ANOMALY":294.8998,"EPHEMERIS_TYPE":0,"CLASSIFICATION_TYPE":"U","NORAD_CAT_ID":67571,"ELEMENT_SET_NO":999,"REV_AT_EPOCH":680,"BSTAR":0.0015219014,"MEAN_MOTION_DOT":0.00233308,"MEAN_MOTION_DDOT":0},{"OBJECT_NAME":"BREEZE-M DEB [TANK]","OBJECT_ID":"2012-065C","EPOCH":"2026-03-09T18:24:51.694272","MEAN_MOTION":6.31444667,"ECCENTRICITY":0.45856615,"INCLINATION":49.6461,"RA_OF_ASC_NODE":257.3963,"ARG_OF_PERICENTER":60.6097,"MEAN_ANOMALY":337.4486,"EPHEMERIS_TYPE":0,"CLASSIFICATION_TYPE":"U","NORAD_CAT_ID":39010,"ELEMENT_SET_NO":999,"REV_AT_EPOCH":29782,"BSTAR":0.00094810763,"MEAN_MOTION_DOT":5.694e-5,"MEAN_MOTION_DDOT":0}]
